start=new Date('2022-04-12T00:00:00.000Z').valueOf();
sats=[{"MEAN_MOTION_DOT":"-0.00001104","CLASSIFICATION_TYPE":"U","LAUNCH_DATE":"2020-10-24","OBJECT_NAME":"STARLINK-1911","RCS_SIZE":"LARGE","REV_AT_EPOCH":"8146","MEAN_MOTION":"15.06386104","ARG_OF_PERICENTER":"60.6616","OBJECT_ID":"2020-074L","MEAN_ELEMENT_THEORY":"SGP4","PERIOD":"95.593","TLE_LINE2":"2 46749  53.0552 251.4989 0001691  60.6616 299.4541 15.06386104 81469","APOAPSIS":"548.427","ECCENTRICITY":"0.00016910","EPOCH":"2022-04-11T20:07:58.723968","RA_OF_ASC_NODE":"251.4989","MEAN_MOTION_DDOT":"0.0000000000000","NORAD_CAT_ID":"46749","TIME_SYSTEM":"UTC","ELEMENT_SET_NO":"999","OBJECT_TYPE":"PAYLOAD","EPHEMERIS_TYPE":"0","BSTAR":"-0.00005521600000","COUNTRY_CODE":"US","INCLINATION":"53.0552","MEAN_ANOMALY":"299.4541","FILE":"3397723","DECAY_DATE":null,"PERIAPSIS":"546.085","SEMIMAJOR_AXIS":"6925.391","SITE":"AFETR","REF_FRAME":"TEME","TLE_LINE1":"1 46749U 20074L   22101.83887412 -.00001104  00000-0 -55216-4 0  9991","CENTER_NAME":"EARTH","GP_ID":"201016263"},{"OBJECT_ID":"2020-074N","ARG_OF_PERICENTER":"67.3949","PERIOD":"95.593","MEAN_ELEMENT_THEORY":"SGP4","MEAN_MOTION":"15.06389485","APOAPSIS":"548.271","ECCENTRICITY":"0.00014810","TLE_LINE2":"2 46751  53.0540 251.5083 0001481  67.3949 292.7197 15.06389485 81463","EPOCH":"2022-04-11T20:02:40.228512","MEAN_MOTION_DOT":"-0.00000478","CLASSIFICATION_TYPE":"U","LAUNCH_DATE":"2020-10-24","REV_AT_EPOCH":"8146","OBJECT_NAME":"STARLINK-1920","RCS_SIZE":"LARGE","FILE":"3397723","DECAY_DATE":null,"COUNTRY_CODE":"US","MEAN_ANOMALY":"292.7197","INCLINATION":"53.0540","SEMIMAJOR_AXIS":"6925.381","PERIAPSIS":"546.220","TLE_LINE1":"1 46751U 20074N   22101.83518783 -.00000478  00000-0 -13174-4 0  9996","SITE":"AFETR","REF_FRAME":"TEME","CENTER_NAME":"EARTH","GP_ID":"201016513","RA_OF_ASC_NODE":"251.5083","MEAN_MOTION_DDOT":"0.0000000000000","NORAD_CAT_ID":"46751","ELEMENT_SET_NO":"999","TIME_SYSTEM":"UTC","BSTAR":"-0.00001317400000","OBJECT_TYPE":"PAYLOAD","EPHEMERIS_TYPE":"0"},{"MEAN_MOTION_DDOT":"0.0000000000000","NORAD_CAT_ID":"46752","TIME_SYSTEM":"UTC","ELEMENT_SET_NO":"999","BSTAR":"-0.00039844000000","OBJECT_TYPE":"PAYLOAD","EPHEMERIS_TYPE":"0","RA_OF_ASC_NODE":"251.7465","TLE_LINE1":"1 46752U 20074P   22101.77989676 -.00006215  00000-0 -39844-3 0  9999","SITE":"AFETR","REF_FRAME":"TEME","CENTER_NAME":"EARTH","GP_ID":"201017265","FILE":"3397723","DECAY_DATE":null,"COUNTRY_CODE":"US","INCLINATION":"53.0543","MEAN_ANOMALY":"312.3683","SEMIMAJOR_AXIS":"6925.283","PERIAPSIS":"546.091","LAUNCH_DATE":"2020-10-24","REV_AT_EPOCH":"8145","OBJECT_NAME":"STARLINK-1921","RCS_SIZE":"LARGE","MEAN_MOTION_DOT":"-0.00006215","CLASSIFICATION_TYPE":"U","EPOCH":"2022-04-11T18:43:03.080064","OBJECT_ID":"2020-074P","ARG_OF_PERICENTER":"47.7435","PERIOD":"95.591","MEAN_ELEMENT_THEORY":"SGP4","MEAN_MOTION":"15.06421387","APOAPSIS":"548.206","ECCENTRICITY":"0.00015270","TLE_LINE2":"2 46752  53.0543 251.7465 0001527  47.7435 312.3683 15.06421387 81452"},{"GP_ID":"201017016","CENTER_NAME":"EARTH","TLE_LINE1":"1 46753U 20074Q   22101.81307193  .00000504  00000-0  52767-4 0  9996","SITE":"AFETR","REF_FRAME":"TEME","PERIAPSIS":"546.198","SEMIMAJOR_AXIS":"6925.369","FILE":"3397723","DECAY_DATE":null,"COUNTRY_CODE":"US","INCLINATION":"53.0534","MEAN_ANOMALY":"297.2811","BSTAR":"0.00005276700000","OBJECT_TYPE":"PAYLOAD","EPHEMERIS_TYPE":"0","NORAD_CAT_ID":"46753","MEAN_MOTION_DDOT":"0.0000000000000","ELEMENT_SET_NO":"999","TIME_SYSTEM":"UTC","RA_OF_ASC_NODE":"251.5972","EPOCH":"2022-04-11T19:30:49.414752","APOAPSIS":"548.271","ECCENTRICITY":"0.00014970","TLE_LINE2":"2 46753  53.0534 251.5972 0001497  62.8330 297.2811 15.06393212 81462","ARG_OF_PERICENTER":"62.8330","OBJECT_ID":"2020-074Q","MEAN_ELEMENT_THEORY":"SGP4","PERIOD":"95.593","MEAN_MOTION":"15.06393212","REV_AT_EPOCH":"8146","OBJECT_NAME":"STARLINK-1922","RCS_SIZE":"LARGE","LAUNCH_DATE":"2020-10-24","MEAN_MOTION_DOT":"0.00000504","CLASSIFICATION_TYPE":"U"},{"CLASSIFICATION_TYPE":"U","MEAN_MOTION_DOT":"0.00002732","RCS_SIZE":"LARGE","OBJECT_NAME":"STARLINK-1923","REV_AT_EPOCH":"8146","LAUNCH_DATE":"2020-10-24","TLE_LINE2":"2 46754  53.0535 251.5625 0001304  60.3177 299.7942 15.06400971 81461","ECCENTRICITY":"0.00013040","APOAPSIS":"548.114","MEAN_MOTION":"15.06400971","MEAN_ELEMENT_THEORY":"SGP4","PERIOD":"95.592","OBJECT_ID":"2020-074R","ARG_OF_PERICENTER":"60.3177","EPOCH":"2022-04-11T19:41:26.061792","RA_OF_ASC_NODE":"251.5625","EPHEMERIS_TYPE":"0","OBJECT_TYPE":"PAYLOAD","BSTAR":"0.00020223000000","TIME_SYSTEM":"UTC","ELEMENT_SET_NO":"999","MEAN_MOTION_DDOT":"0.0000000000000","NORAD_CAT_ID":"46754","PERIAPSIS":"546.308","SEMIMAJOR_AXIS":"6925.346","MEAN_ANOMALY":"299.7942","INCLINATION":"53.0535","COUNTRY_CODE":"US","DECAY_DATE":null,"FILE":"3397723","GP_ID":"201015764","CENTER_NAME":"EARTH","REF_FRAME":"TEME","SITE":"AFETR","TLE_LINE1":"1 46754U 20074R   22101.82044053  .00002732  00000-0  20223-3 0  9997"},{"BSTAR":"0.00015308000000","EPHEMERIS_TYPE":"0","OBJECT_TYPE":"PAYLOAD","TIME_SYSTEM":"UTC","ELEMENT_SET_NO":"999","MEAN_MOTION_DDOT":"0.0000000000000","NORAD_CAT_ID":"46755","RA_OF_ASC_NODE":"256.5434","CENTER_NAME":"EARTH","GP_ID":"201016014","TLE_LINE1":"1 46755U 20074S   22101.82550901  .00001999  00000-0  15308-3 0  9994","REF_FRAME":"TEME","SITE":"AFETR","SEMIMAJOR_AXIS":"6925.351","PERIAPSIS":"545.970","DECAY_DATE":null,"FILE":"3397723","MEAN_ANOMALY":"302.1322","INCLINATION":"53.0532","COUNTRY_CODE":"US","REV_AT_EPOCH":"8139","RCS_SIZE":"LARGE","OBJECT_NAME":"STARLINK-1924","LAUNCH_DATE":"2020-10-24","CLASSIFICATION_TYPE":"U","MEAN_MOTION_DOT":"0.00001999","EPOCH":"2022-04-11T19:48:43.978464","ECCENTRICITY":"0.00017990","APOAPSIS":"548.461","TLE_LINE2":"2 46755  53.0532 256.5434 0001799  57.9841 302.1322 15.06399366 81398","MEAN_ELEMENT_THEORY":"SGP4","PERIOD":"95.592","OBJECT_ID":"2020-074S","ARG_OF_PERICENTER":"57.9841","MEAN_MOTION":"15.06399366"},{"EPOCH":"2022-04-11T19:36:45.082944","TLE_LINE2":"2 46756  53.0536 256.5925 0001560  68.8507 291.2649 15.06398040 81392","APOAPSIS":"548.300","ECCENTRICITY":"0.00015600","MEAN_MOTION":"15.06398040","ARG_OF_PERICENTER":"68.8507","OBJECT_ID":"2020-074T","MEAN_ELEMENT_THEORY":"SGP4","PERIOD":"95.592","OBJECT_NAME":"STARLINK-1925","RCS_SIZE":"LARGE","REV_AT_EPOCH":"8139","LAUNCH_DATE":"2020-10-24","MEAN_MOTION_DOT":"0.00001203","CLASSIFICATION_TYPE":"U","GP_ID":"201016766","CENTER_NAME":"EARTH","SITE":"AFETR","REF_FRAME":"TEME","TLE_LINE1":"1 46756U 20074T   22101.81718846  .00001203  00000-0  99649-4 0  9997","SEMIMAJOR_AXIS":"6925.355","PERIAPSIS":"546.139","COUNTRY_CODE":"US","INCLINATION":"53.0536","MEAN_ANOMALY":"291.2649","FILE":"3397723","DECAY_DATE":null,"OBJECT_TYPE":"PAYLOAD","EPHEMERIS_TYPE":"0","BSTAR":"0.00009964900000","MEAN_MOTION_DDOT":"0.0000000000000","NORAD_CAT_ID":"46756","TIME_SYSTEM":"UTC","ELEMENT_SET_NO":"999","RA_OF_ASC_NODE":"256.5925"},{"TLE_LINE2":"2 46757  53.0538 257.0611 0001631  68.8718 291.2445 15.06391217 81377","ECCENTRICITY":"0.00016310","APOAPSIS":"548.370","MEAN_MOTION":"15.06391217","PERIOD":"95.593","MEAN_ELEMENT_THEORY":"SGP4","OBJECT_ID":"2020-074U","ARG_OF_PERICENTER":"68.8718","EPOCH":"2022-04-11T17:08:08.792160","CLASSIFICATION_TYPE":"U","MEAN_MOTION_DOT":"0.00000117","RCS_SIZE":"LARGE","OBJECT_NAME":"STARLINK-1926","REV_AT_EPOCH":"8137","LAUNCH_DATE":"2020-10-24","SEMIMAJOR_AXIS":"6925.375","PERIAPSIS":"546.111","MEAN_ANOMALY":"291.2445","INCLINATION":"53.0538","COUNTRY_CODE":"US","DECAY_DATE":null,"FILE":"3397723","GP_ID":"201017516","CENTER_NAME":"EARTH","REF_FRAME":"TEME","SITE":"AFETR","TLE_LINE1":"1 46757U 20074U   22101.71399065  .00000117  00000-0  26781-4 0  9995","RA_OF_ASC_NODE":"257.0611","EPHEMERIS_TYPE":"0","OBJECT_TYPE":"PAYLOAD","BSTAR":"0.00002678100000","ELEMENT_SET_NO":"999","TIME_SYSTEM":"UTC","NORAD_CAT_ID":"46757","MEAN_MOTION_DDOT":"0.0000000000000"},{"REF_FRAME":"TEME","SITE":"AFETR","TLE_LINE1":"1 46758U 20074V   22101.80708166  .00002199  00000-0  16654-3 0  9991","GP_ID":"201016264","CENTER_NAME":"EARTH","INCLINATION":"53.0540","MEAN_ANOMALY":"318.8080","COUNTRY_CODE":"US","DECAY_DATE":null,"FILE":"3397723","SEMIMAJOR_AXIS":"6925.374","PERIAPSIS":"545.902","ELEMENT_SET_NO":"999","TIME_SYSTEM":"UTC","NORAD_CAT_ID":"46758","MEAN_MOTION_DDOT":"0.0000000000000","EPHEMERIS_TYPE":"0","OBJECT_TYPE":"PAYLOAD","BSTAR":"0.00016654000000","RA_OF_ASC_NODE":"256.6309","EPOCH":"2022-04-11T19:22:11.855424","MEAN_MOTION":"15.06391702","PERIOD":"95.593","MEAN_ELEMENT_THEORY":"SGP4","ARG_OF_PERICENTER":"41.3054","OBJECT_ID":"2020-074V","TLE_LINE2":"2 46758  53.0540 256.6309 0001930  41.3054 318.8080 15.06391702 81393","ECCENTRICITY":"0.00019300","APOAPSIS":"548.576","LAUNCH_DATE":"2020-10-24","RCS_SIZE":"LARGE","OBJECT_NAME":"STARLINK-1928","REV_AT_EPOCH":"8139","CLASSIFICATION_TYPE":"U","MEAN_MOTION_DOT":"0.00002199"},{"RA_OF_ASC_NODE":"266.9487","MEAN_MOTION_DDOT":"0.0000000000000","NORAD_CAT_ID":"46759","ELEMENT_SET_NO":"999","TIME_SYSTEM":"UTC","BSTAR":"0.00003514000000","OBJECT_TYPE":"PAYLOAD","EPHEMERIS_TYPE":"0","FILE":"3397723","DECAY_DATE":null,"COUNTRY_CODE":"US","INCLINATION":"53.0547","MEAN_ANOMALY":"296.8475","PERIAPSIS":"546.129","SEMIMAJOR_AXIS":"6925.377","TLE_LINE1":"1 46759U 20074W   22101.73613092  .00000242  00000-0  35140-4 0  9996","SITE":"AFETR","REF_FRAME":"TEME","CENTER_NAME":"EARTH","GP_ID":"201016514","MEAN_MOTION_DOT":"0.00000242","CLASSIFICATION_TYPE":"U","LAUNCH_DATE":"2020-10-24","REV_AT_EPOCH":"8123","OBJECT_NAME":"STARLINK-1833","RCS_SIZE":"LARGE","ARG_OF_PERICENTER":"63.2678","OBJECT_ID":"2020-074W","MEAN_ELEMENT_THEORY":"SGP4","PERIOD":"95.593","MEAN_MOTION":"15.06390646","APOAPSIS":"548.356","ECCENTRICITY":"0.00016080","TLE_LINE2":"2 46759  53.0547 266.9487 0001608  63.2678 296.8475 15.06390646 81231","EPOCH":"2022-04-11T17:40:01.711488"}];
